COMMENT,ORIGINATOR,NORAD_CAT_ID,OBJECT_NAME,OBJECT_TYPE,CLASSIFICATION_TYPE,INTLDES,EPOCH,EPOCH_MICROSECONDS,MEAN_MOTION,ECCENTRICITY,INCLINATION,RA_OF_ASC_NODE,ARG_OF_PERICENTER,MEAN_ANOMALY,EPHEMERIS_TYPE,ELEMENT_SET_NO,REV_AT_EPOCH,BSTAR,MEAN_MOTION_DOT,MEAN_MOTION_DDOT,FILE,TLE_LINE0,TLE_LINE1,TLE_LINE2,OBJECT_ID,OBJECT_NUMBER,SEMIMAJOR_AXIS,PERIOD,APOGEE,PERIGEE,DECAYED
"GENERATED VIA SPACETRACK.ORG API","18 SPCS","48897","SPACEBEE-109","PAYLOAD","U","21059U","2022-03-22 21:40:29","576640","15.14056988","0.0010033","97.5425","212.2467","49.032","311.1778","0","999","4083","0.00038958","0.00007027","0","3370190","0 SPACEBEE-109","1 48897U 21059U   22081.90312010  .00007027  00000-0  38958-3 0  9994","2 48897  97.5425 212.2467 0010033  49.0320 311.1778 15.14056988 40839","2021-059U","48897","6901.980","95.109","530.770","516.920","0"
"GENERATED VIA SPACETRACK.ORG API","18 SPCS","48897","SPACEBEE-109","PAYLOAD","U","21059U","2022-03-23 07:11:30","268032","15.14064708","0.0010023","97.5426","212.6395","47.8432","312.365","0","999","4089","0.00043225","0.00007807","0","3370936","0 SPACEBEE-109","1 48897U 21059U   22082.29965588  .00007807  00000-0  43225-3 0  9990","2 48897  97.5426 212.6395 0010023  47.8432 312.3650 15.14064708 40890","2021-059U","48897","6901.956","95.108","530.739","516.904","0"
"GENERATED VIA SPACETRACK.ORG API","18 SPCS","48897","SPACEBEE-109","PAYLOAD","U","21059U","2022-03-23 07:11:30","268032","15.14064708","0.0010023","97.5426","212.6395","47.8432","312.365","0","999","4089","0.00043225","0.00007807","0","3371208","0 SPACEBEE-109","1 48897U 21059U   22082.29965588  .00007807  00000-0  43225-3 0  9990","2 48897  97.5426 212.6395 0010023  47.8432 312.3650 15.14064708 40890","2021-059U","48897","6901.956","95.108","530.739","516.904","0"
"GENERATED VIA SPACETRACK.ORG API","18 SPCS","48897","SPACEBEE-109","PAYLOAD","U","21059U","2022-03-23 19:52:51","3840","15.14072822","0.0009966","97.5427","213.1632","46.0801","314.1251","0","999","4097","0.00043777","0.00007909","0","3371636","0 SPACEBEE-109","1 48897U 21059U   22082.82836810  .00007909  00000-0  43777-3 0  9999","2 48897  97.5427 213.1632 0009966  46.0801 314.1251 15.14072822 40978","2021-059U","48897","6901.932","95.108","530.675","516.918","0"
"GENERATED VIA SPACETRACK.ORG API","18 SPCS","48897","SPACEBEE-109","PAYLOAD","U","21059U","2022-03-24 08:34:11","482176","15.14080821","0.0009953","97.5428","213.6871","44.5751","315.6279","0","999","4105","0.00042735","0.00007721","0","3372185","0 SPACEBEE-109","1 48897U 21059U   22083.35707734  .00007721  00000-0  42735-3 0  9995","2 48897  97.5428 213.6871 0009953  44.5751 315.6279 15.14080821 41056","2021-059U","48897","6901.908","95.107","530.642","516.903","0"
"GENERATED VIA SPACETRACK.ORG API","18 SPCS","48897","SPACEBEE-109","PAYLOAD","U","21059U","2022-03-24 21:15:31","680576","15.14090728","0.000993","97.5428","214.211","43.0208","317.1798","0","999","4113","0.0004677","0.00008459","0","3372486","0 SPACEBEE-109","1 48897U 21059U   22083.88578334  .00008459  00000-0  46770-3 0  9997","2 48897  97.5428 214.2110 0009930  43.0208 317.1798 15.14090728 41134","2021-059U","48897","6901.877","95.107","530.596","516.889","0"
"GENERATED VIA SPACETRACK.ORG API","18 SPCS","48897","SPACEBEE-109","PAYLOAD","U","21059U","2022-03-24 21:15:31","680576","15.14090728","0.000993","97.5428","214.211","43.0208","317.1798","0","999","4113","0.0004677","0.00008459","0","3373054","0 SPACEBEE-109","1 48897U 21059U   22083.88578334  .00008459  00000-0  46770-3 0  9997","2 48897  97.5428 214.2110 0009930  43.0208 317.1798 15.14090728 41134","2021-059U","48897","6901.877","95.107","530.596","516.889","0"
"GENERATED VIA SPACETRACK.ORG API","18 SPCS","48897","SPACEBEE-109","PAYLOAD","U","21059U","2022-03-25 14:42:21","577536","15.14101411","0.0009872","97.5426","214.9314","40.8136","319.3833","0","999","4124","0.00044955","0.0000813","0","3373822","0 SPACEBEE-109","1 48897U 21059U   22084.61274974  .00008130  00000-0  44955-3 0  9991","2 48897  97.5426 214.9314 0009872  40.8136 319.3833 15.14101411 41243","2021-059U","48897","6901.845","95.106","530.523","516.896","0"
"GENERATED VIA SPACETRACK.ORG API","18 SPCS","48897","SPACEBEE-109","PAYLOAD","U","21059U","2022-03-25 21:03:01","414944","15.14105385","0.0009842","97.5425","215.1934","39.9638","320.2316","0","999","4128","0.00043449","0.00007856","0","3374844","0 SPACEBEE-109","1 48897U 21059U   22084.87709971  .00007856  00000-0  43449-3 0  9990","2 48897  97.5425 215.1934 0009842  39.9638 320.2316 15.14105385 41281","2021-059U","48897","6901.833","95.106","530.491","516.905","0"
"GENERATED VIA SPACETRACK.ORG API","18 SPCS","48897","SPACEBEE-109","PAYLOAD","U","21059U","2022-03-26 03:23:41","194464","15.141086","0.0009818","97.5425","215.4554","39.1174","321.0766","0","999","4132","0.00041269","0.00007459","0","3374463","0 SPACEBEE-109","1 48897U 21059U   22085.14144901  .00007459  00000-0  41269-3 0  9994","2 48897  97.5425 215.4554 0009818  39.1174 321.0766 15.14108600 41328","2021-059U","48897","6901.823","95.105","530.464","516.912","0"
"GENERATED VIA SPACETRACK.ORG API","18 SPCS","48897","SPACEBEE-109","PAYLOAD","U","21059U","2022-03-26 08:09:11","4480","15.14111602","0.0009808","97.5424","215.6519","38.5063","321.6867","0","999","4135","0.00041089","0.00007427","0","3375254","0 SPACEBEE-109","1 48897U 21059U   22085.33971070  .00007427  00000-0  41089-3 0  9995","2 48897  97.5424 215.6519 0009808  38.5063 321.6867 15.14111602 41356","2021-059U","48897","6901.814","95.105","530.448","516.910","0"
"GENERATED VIA SPACETRACK.ORG API","18 SPCS","48897","SPACEBEE-109","PAYLOAD","U","21059U","2022-03-26 20:50:30","306912","15.14119458","0.0009749","97.5425","216.1759","36.5983","323.5913","0","999","4143","0.00040746","0.00007366","0","3375650","0 SPACEBEE-109","1 48897U 21059U   22085.86840633  .00007366  00000-0  40746-3 0  9994","2 48897  97.5425 216.1759 0009749  36.5983 323.5913 15.14119458 41431","2021-059U","48897","6901.790","95.105","530.384","516.927","0"
"GENERATED VIA SPACETRACK.ORG API","18 SPCS","48897","SPACEBEE-109","PAYLOAD","U","21059U","2022-03-27 07:56:39","443712","15.1412798","0.000971","97.5424","216.6343","34.9715","325.2152","0","999","4150","0.00044607","0.00008073","0","3376339","0 SPACEBEE-109","1 48897U 21059U   22086.33101208  .00008073  00000-0  44607-3 0  9991","2 48897  97.5424 216.6343 0009710  34.9715 325.2152 15.14127980 41508","2021-059U","48897","6901.764","95.104","530.331","516.928","0"
"GENERATED VIA SPACETRACK.ORG API","18 SPCS","48897","SPACEBEE-109","PAYLOAD","U","21059U","2022-03-27 14:17:18","880224","15.14132801","0.0009682","97.5424","216.8963","34.0423","326.1427","0","999","4154","0.0004756","0.00008613","0","3376641","0 SPACEBEE-109","1 48897U 21059U   22086.59535741  .00008613  00000-0  47560-3 0  9993","2 48897  97.5424 216.8963 0009682  34.0423 326.1427 15.14132801 41540","2021-059U","48897","6901.750","95.104","530.297","516.932","0"
"GENERATED VIA SPACETRACK.ORG API","18 SPCS","48897","SPACEBEE-109","PAYLOAD","U","21059U","2022-03-27 22:13:08","41728","15.14140364","0.0009642","97.5425","217.2238","32.7326","327.4501","0","999","4159","0.00053585","0.00009716","0","3377053","0 SPACEBEE-109","1 48897U 21059U   22086.92578752  .00009716  00000-0  53585-3 0  9998","2 48897  97.5425 217.2238 0009642  32.7326 327.4501 15.14140364 41599","2021-059U","48897","6901.727","95.103","530.246","516.937","0"
"GENERATED VIA SPACETRACK.ORG API","18 SPCS","48897","SPACEBEE-109","PAYLOAD","U","21059U","2022-03-28 07:44:06","839232","15.14150252","0.0009611","97.5426","217.6168","31.2627","328.9174","0","999","4165","0.0006107","0.00011088","0","3377801","0 SPACEBEE-109","1 48897U 21059U   22087.32230138  .00011088  00000-0  61070-3 0  9999","2 48897  97.5426 217.6168 0009611  31.2627 328.9174 15.14150252 41656","2021-059U","48897","6901.697","95.103","530.195","516.928","0"
"GENERATED VIA SPACETRACK.ORG API","18 SPCS","48897","SPACEBEE-109","PAYLOAD","U","21059U","2022-03-28 20:25:24","991680","15.1415995","0.000959","97.5428","218.1408","29.2696","330.9071","0","999","4173","0.00057749","0.00010483","0","3377959","0 SPACEBEE-109","1 48897U 21059U   22087.85098370  .00010483  00000-0  57749-3 0  9993","2 48897  97.5428 218.1408 0009590  29.2696 330.9071 15.14159950 41732","2021-059U","48897","6901.667","95.102","530.151","516.913","0"
"GENERATED VIA SPACETRACK.ORG API","18 SPCS","48897","SPACEBEE-109","PAYLOAD","U","21059U","2022-03-28 22:00:34","734816","15.14161377","0.0009585","97.5429","218.2063","29.0463","331.13","0","999","4174","0.00058185","0.00010563","0","3378342","0 SPACEBEE-109","1 48897U 21059U   22087.91706869  .00010563  00000-0  58185-3 0  9993","2 48897  97.5429 218.2063 0009585  29.0463 331.1300 15.14161377 41740","2021-059U","48897","6901.663","95.102","530.143","516.912","0"
"GENERATED VIA SPACETRACK.ORG API","18 SPCS","48897","SPACEBEE-109","PAYLOAD","U","21059U","2022-03-29 13:52:11","773056","15.1417725","0.0009537","97.543","218.8612","26.5728","333.5991","0","999","4184","0.00061456","0.00011167","0","3379323","0 SPACEBEE-109","1 48897U 21059U   22088.57791404  .00011167  00000-0  61456-3 0  9991","2 48897  97.5430 218.8612 0009537  26.5728 333.5991 15.14177250 41841","2021-059U","48897","6901.614","95.101","530.062","516.897","0"
"GENERATED VIA SPACETRACK.ORG API","18 SPCS","48897","SPACEBEE-109","PAYLOAD","U","21059U","2022-03-29 21:48:00","90432","15.14185967","0.0009527","97.5432","219.1887","25.4579","334.712","0","999","4189","0.00064993","0.00011817","0","3379484","0 SPACEBEE-109","1 48897U 21059U   22088.90833438  .00011817  00000-0  64993-3 0  9993","2 48897  97.5432 219.1887 0009527  25.4579 334.7120 15.14185967 41898","2021-059U","48897","6901.588","95.101","530.028","516.878","0"
